{
    "links": {
        "self": "http://www.neowsapp.com/rest/v1/neo/3734099?api_key=iIulBulltgU6a56xZRHN4H3l9WmuAYTsLGpBGhQ2"
    },
    "id": "3734099",
    "neo_reference_id": "3734099",
    "name": "(2015 VR65)",
    "designation": "2015 VR65",
    "nasa_jpl_url": "http://ssd.jpl.nasa.gov/sbdb.cgi?sstr=3734099",
    "absolute_magnitude_h": 24.0,
    "estimated_diameter": {
        "kilometers": {
            "estimated_diameter_min": 0.0421264611,
            "estimated_diameter_max": 0.0941976306
        },
        "meters": {
            "estimated_diameter_min": 42.1264610556,
            "estimated_diameter_max": 94.1976305719
        },
        "miles": {
            "estimated_diameter_min": 0.0261761612,
            "estimated_diameter_max": 0.0585316759
        },
        "feet": {
            "estimated_diameter_min": 138.2101784897,
            "estimated_diameter_max": 309.0473542854
        }
    },
    "is_potentially_hazardous_asteroid": false,
    "close_approach_data": [
        {
            "close_approach_date": "2015-11-04",
            "close_approach_date_full": "2015-Nov-04 04:56",
            "epoch_date_close_approach": 1446612960000,
            "relative_velocity": {
                "kilometers_per_second": "12.7488215946",
                "kilometers_per_hour": "45895.757740421",
                "miles_per_hour": "28517.8390248744"
            },
            "miss_distance": {
                "astronomical": "0.0295044784",
                "lunar": "11.4772420976",
                "kilometers": "4413807.124101008",
                "miles": "2742612.5702815904"
            },
            "orbiting_body": "Earth"
        }
    ],
    "orbital_data": {
        "orbit_id": "11",
        "orbit_determination_date": "2017-04-06 08:30:47",
        "first_observation_date": "2015-11-08",
        "last_observation_date": "2015-11-17",
        "data_arc_in_days": 9,
        "observations_used": 72,
        "orbit_uncertainty": "8",
        "minimum_orbit_intersection": ".0150011",
        "jupiter_tisserand_invariant": "3.072",
        "epoch_osculation": "2457336.5",
        "eccentricity": ".6176315750783811",
        "semi_major_axis": "2.590191159128505",
        "inclination": "16.62551093817392",
        "ascending_node_longitude": "45.61879923458476",
        "orbital_period": "1522.636204158971",
        "perihelion_distance": ".990407313761869",
        "perihelion_argument": "343.0194510188775",
        "aphelion_distance": "4.189975004495142",
        "perihelion_time": "2457319.790910482373",
        "mean_anomaly": "3.950564297575112",
        "mean_motion": ".2364320505559279",
        "equinox": "J2000",
        "orbit_class": {
            "orbit_class_type": "APO",
            "orbit_class_description": "Near-Earth asteroid orbits which cross the Earth’s orbit similar to that of 1862 Apollo",
            "orbit_class_range": "a (semi-major axis) > 1.0 AU; q (perihelion) < 1.017 AU"
        }
    },
    "is_sentry_object": false
}